*******************************************************************************
Ephemeris / WWW_USER Fri Mar  7 10:21:33 2025 Pasadena, USA      / Horizons    
*******************************************************************************
Target body name: (2018 RC)                       {source: JPL#21}
Center body name: Earth (399)                     {source: DE441}
Center-site name: Mauna Kea
*******************************************************************************
Start time      : A.D. 2018-Dec-20 03:57:00.0000 UT      
Stop  time      : A.D. 2018-Dec-20 16:41:00.0000 UT      
Step-size       : 1 minutes
*******************************************************************************
Target pole/equ : undefined
Target radii    : undefined                                                    
Center geodetic : 204.5278, 19.8260847, 4.21024   {E-lon(deg),Lat(deg),Alt(km)}
Center cylindric: 204.5278, 6006.35451, 2151.0229 {E-lon(deg),Dxy(km),Dz(km)}
Center pole/equ : ITRF93                          {East-longitude positive}
Center radii    : 6378.137, 6378.137, 6356.752 km {Equator_a, b, pole_c}       
Target primary  : Sun
Vis. interferer : MOON (R_eq= 1737.400) km        {source: DE441}
Rel. light bend : Sun                             {source: DE441}
Rel. lght bnd GM: 1.3271E+11 km^3/s^2                                          
Small-body perts: Yes                             {source: SB441-N16}
Atmos refraction: NO (AIRLESS)
RA format       : HMS
Time format     : CAL 
Calendar mode   : Mixed Julian/Gregorian
RTS-only print  : NO       
EOP file        : eop.250306.p250602                                           
EOP coverage    : DATA-BASED 1962-JAN-20 TO 2025-MAR-06. PREDICTS-> 2025-JUN-01
Units conversion: 1 au= 149597870.700 km, c= 299792.458 km/s, 1 day= 86400.0 s 
Table cut-offs 1: Elevation (-90.0deg=NO ),Airmass (>38.000=NO), Daylight (YES)
Table cut-offs 2: Solar elongation (  0.0,180.0=NO ),Local Hour Angle( 0.0=NO )
Table cut-offs 3: RA/DEC angular rate (     0.0=NO )                           
*******************************************************************************
Initial IAU76/J2000 heliocentric ecliptic osculating elements (au, days, deg.):
  EPOCH=  2458369.5 ! 2018-Sep-08.00 (TDB)         Residual RMS= .84866        
   EC= .2426621660028976   QR= .647471518312811    TP= 2458473.8617576878      
   OM= 346.8893436915528   W=  145.8737085184167   IN= 1.612045057594462       
  Equivalent ICRF heliocentric cartesian coordinates (au, au/d):
   X= 9.781363708094483E-01  Y=-2.377942828764822E-01  Z=-1.040448782093900E-01
  VX= 1.501011538102481E-03 VY= 1.393070215815854E-02 VZ= 6.509326736836346E-03
Asteroid physical parameters (km, seconds, rotational period in hours):        
   GM= n.a.                RAD= n.a.               ROTPER= .16548              
   H= 24.93                G= .150                 B-V= n.a.                   
                           ALBEDO= n.a.            STYP= n.a.                  
*******************************************************************************
 Date__(UT)__HR:MN     R.A._________(ICRF)_________DEC
******************************************************
$$SOE
 2018-Dec-20 03:57 Cm  14 47 31.047674 -14 53 09.22292
 2018-Dec-20 03:58 Cm  14 47 31.190774 -14 53 10.02718
 2018-Dec-20 03:59 Cm  14 47 31.333888 -14 53 10.83147
 2018-Dec-20 04:00 Cm  14 47 31.477017 -14 53 11.63580
 2018-Dec-20 04:01 Cm  14 47 31.620161 -14 53 12.44017
 2018-Dec-20 04:02 Cm  14 47 31.763319 -14 53 13.24459
 2018-Dec-20 04:03 Cm  14 47 31.906491 -14 53 14.04904
 2018-Dec-20 04:04 Cm  14 47 32.049678 -14 53 14.85353
 2018-Dec-20 04:05 Cm  14 47 32.192879 -14 53 15.65806
 2018-Dec-20 04:06 Cm  14 47 32.336094 -14 53 16.46263
 2018-Dec-20 04:07 Cm  14 47 32.479323 -14 53 17.26725
 2018-Dec-20 04:08 Cm  14 47 32.622566 -14 53 18.07190
 2018-Dec-20 04:09 Cm  14 47 32.765823 -14 53 18.87660
 2018-Dec-20 04:10 Cm  14 47 32.909095 -14 53 19.68134
 2018-Dec-20 04:11 Cm  14 47 33.052380 -14 53 20.48612
 2018-Dec-20 04:12 Nm  14 47 33.195679 -14 53 21.29094
 2018-Dec-20 04:13 Nm  14 47 33.338992 -14 53 22.09580
 2018-Dec-20 04:14 Nm  14 47 33.482319 -14 53 22.90071
 2018-Dec-20 04:15 Nm  14 47 33.625660 -14 53 23.70566
 2018-Dec-20 04:16 Nm  14 47 33.769014 -14 53 24.51065
 2018-Dec-20 04:17 Nm  14 47 33.912382 -14 53 25.31568
 2018-Dec-20 04:18 Nm  14 47 34.055763 -14 53 26.12076
 2018-Dec-20 04:19 Nm  14 47 34.199158 -14 53 26.92588
 2018-Dec-20 04:20 Nm  14 47 34.342567 -14 53 27.73105
 2018-Dec-20 04:21 Nm  14 47 34.485989 -14 53 28.53625
 2018-Dec-20 04:22 Nm  14 47 34.629424 -14 53 29.34151
 2018-Dec-20 04:23 Nm  14 47 34.772872 -14 53 30.14680
 2018-Dec-20 04:24 Nm  14 47 34.916334 -14 53 30.95214
 2018-Dec-20 04:25 Nm  14 47 35.059809 -14 53 31.75753
 2018-Dec-20 04:26 Nm  14 47 35.203297 -14 53 32.56296
 2018-Dec-20 04:27 Nm  14 47 35.346798 -14 53 33.36843
 2018-Dec-20 04:28 Nm  14 47 35.490312 -14 53 34.17395
 2018-Dec-20 04:29 Nm  14 47 35.633839 -14 53 34.97952
 2018-Dec-20 04:30 Nm  14 47 35.777378 -14 53 35.78513
 2018-Dec-20 04:31 Nm  14 47 35.920931 -14 53 36.59078
 2018-Dec-20 04:32 Nm  14 47 36.064497 -14 53 37.39649
 2018-Dec-20 04:33 Nm  14 47 36.208075 -14 53 38.20224
 2018-Dec-20 04:34 Nm  14 47 36.351666 -14 53 39.00803
 2018-Dec-20 04:35 Nm  14 47 36.495269 -14 53 39.81387
 2018-Dec-20 04:36 Nm  14 47 36.638885 -14 53 40.61976
 2018-Dec-20 04:37 Nm  14 47 36.782514 -14 53 41.42569
 2018-Dec-20 04:38 Nm  14 47 36.926154 -14 53 42.23167
 2018-Dec-20 04:39 Am  14 47 37.069808 -14 53 43.03770
 2018-Dec-20 04:40 Am  14 47 37.213473 -14 53 43.84378
 2018-Dec-20 04:41 Am  14 47 37.357151 -14 53 44.64990
 2018-Dec-20 04:42 Am  14 47 37.500841 -14 53 45.45607
 2018-Dec-20 04:43 Am  14 47 37.644543 -14 53 46.26229
 2018-Dec-20 04:44 Am  14 47 37.788257 -14 53 47.06856
 2018-Dec-20 04:45 Am  14 47 37.931983 -14 53 47.87488
 2018-Dec-20 04:46 Am  14 47 38.075721 -14 53 48.68124
 2018-Dec-20 04:47 Am  14 47 38.219471 -14 53 49.48765
 2018-Dec-20 04:48 Am  14 47 38.363233 -14 53 50.29411
 2018-Dec-20 04:49 Am  14 47 38.507007 -14 53 51.10062
 2018-Dec-20 04:50 Am  14 47 38.650792 -14 53 51.90718
 2018-Dec-20 04:51 Am  14 47 38.794589 -14 53 52.71379
 2018-Dec-20 04:52 Am  14 47 38.938397 -14 53 53.52045
 2018-Dec-20 04:53 Am  14 47 39.082217 -14 53 54.32716
 2018-Dec-20 04:54 Am  14 47 39.226048 -14 53 55.13392
 2018-Dec-20 04:55 Am  14 47 39.369891 -14 53 55.94072
 2018-Dec-20 04:56 Am  14 47 39.513745 -14 53 56.74758
 2018-Dec-20 04:57 Am  14 47 39.657610 -14 53 57.55449
 2018-Dec-20 04:58 Am  14 47 39.801487 -14 53 58.36145
 2018-Dec-20 04:59 Am  14 47 39.945375 -14 53 59.16846
 2018-Dec-20 05:00 Am  14 47 40.089273 -14 53 59.97552
 2018-Dec-20 05:01 Am  14 47 40.233183 -14 54 00.78263
 2018-Dec-20 05:02 Am  14 47 40.377104 -14 54 01.58979
 2018-Dec-20 05:03 Am  14 47 40.521035 -14 54 02.39700
 2018-Dec-20 05:04 Am  14 47 40.664977 -14 54 03.20427
 2018-Dec-20 05:05 Am  14 47 40.808930 -14 54 04.01158
 2018-Dec-20 05:06  m  14 47 40.952894 -14 54 04.81895
 2018-Dec-20 05:07  m  14 47 41.096868 -14 54 05.62637
 2018-Dec-20 05:08  m  14 47 41.240853 -14 54 06.43384
 2018-Dec-20 05:09  m  14 47 41.384849 -14 54 07.24136
 2018-Dec-20 05:10  m  14 47 41.528854 -14 54 08.04894
 2018-Dec-20 05:11  m  14 47 41.672871 -14 54 08.85657
 2018-Dec-20 05:12  m  14 47 41.816897 -14 54 09.66425
 2018-Dec-20 05:13  m  14 47 41.960934 -14 54 10.47198
 2018-Dec-20 05:14  m  14 47 42.104980 -14 54 11.27977
 2018-Dec-20 05:15  m  14 47 42.249037 -14 54 12.08761
 2018-Dec-20 05:16  m  14 47 42.393104 -14 54 12.89550
 2018-Dec-20 05:17  m  14 47 42.537181 -14 54 13.70345
 2018-Dec-20 05:18  m  14 47 42.681268 -14 54 14.51145
 2018-Dec-20 05:19  m  14 47 42.825364 -14 54 15.31950
 2018-Dec-20 05:20  m  14 47 42.969470 -14 54 16.12761
 2018-Dec-20 05:21  m  14 47 43.113586 -14 54 16.93577
 2018-Dec-20 05:22  m  14 47 43.257712 -14 54 17.74399
 2018-Dec-20 05:23  m  14 47 43.401847 -14 54 18.55226
 2018-Dec-20 05:24  m  14 47 43.545992 -14 54 19.36058
 2018-Dec-20 05:25  m  14 47 43.690146 -14 54 20.16896
 2018-Dec-20 05:26  m  14 47 43.834309 -14 54 20.97739
 2018-Dec-20 05:27  m  14 47 43.978482 -14 54 21.78588
 2018-Dec-20 05:28  m  14 47 44.122663 -14 54 22.59442
 2018-Dec-20 05:29  m  14 47 44.266854 -14 54 23.40302
 2018-Dec-20 05:30  m  14 47 44.411054 -14 54 24.21167
 2018-Dec-20 05:31  m  14 47 44.555263 -14 54 25.02038
 2018-Dec-20 05:32  m  14 47 44.699481 -14 54 25.82914
 2018-Dec-20 05:33  m  14 47 44.843708 -14 54 26.63796
 2018-Dec-20 05:34  m  14 47 44.987944 -14 54 27.44683
 2018-Dec-20 05:35  m  14 47 45.132188 -14 54 28.25576
 2018-Dec-20 05:36  m  14 47 45.276441 -14 54 29.06475
 2018-Dec-20 05:37  m  14 47 45.420703 -14 54 29.87379
 2018-Dec-20 05:38  m  14 47 45.564973 -14 54 30.68289
 2018-Dec-20 05:39  m  14 47 45.709251 -14 54 31.49204
 2018-Dec-20 05:40  m  14 47 45.853538 -14 54 32.30125
 2018-Dec-20 05:41  m  14 47 45.997834 -14 54 33.11052
 2018-Dec-20 05:42  m  14 47 46.142137 -14 54 33.91984
 2018-Dec-20 05:43  m  14 47 46.286449 -14 54 34.72922
 2018-Dec-20 05:44  m  14 47 46.430768 -14 54 35.53866
 2018-Dec-20 05:45  m  14 47 46.575096 -14 54 36.34815
 2018-Dec-20 05:46  m  14 47 46.719432 -14 54 37.15770
 2018-Dec-20 05:47  m  14 47 46.863775 -14 54 37.96731
 2018-Dec-20 05:48  m  14 47 47.008127 -14 54 38.77698
 2018-Dec-20 05:49  m  14 47 47.152486 -14 54 39.58670
 2018-Dec-20 05:50  m  14 47 47.296852 -14 54 40.39648
 2018-Dec-20 05:51  m  14 47 47.441227 -14 54 41.20632
 2018-Dec-20 05:52  m  14 47 47.585609 -14 54 42.01621
 2018-Dec-20 05:53  m  14 47 47.729998 -14 54 42.82616
 2018-Dec-20 05:54  m  14 47 47.874395 -14 54 43.63617
 2018-Dec-20 05:55  m  14 47 48.018799 -14 54 44.44624
 2018-Dec-20 05:56  m  14 47 48.163210 -14 54 45.25637
 2018-Dec-20 05:57  m  14 47 48.307628 -14 54 46.06655
 2018-Dec-20 05:58  m  14 47 48.452054 -14 54 46.87680
 2018-Dec-20 05:59  m  14 47 48.596486 -14 54 47.68710
